[{"OBJECT_NAME":"METEOR-M2 3","OBJECT_ID":"2023-091A","EPOCH":"2026-03-09T22:59:41.369280","MEAN_MOTION":14.24037691,"ECCENTRICITY":0.000511,"INCLINATION":98.6213,"RA_OF_ASC_NODE":125.9119,"ARG_OF_PERICENTER":98.6128,"MEAN_ANOMALY":261.563,"EPHEMERIS_TYPE":0,"CLASSIFICATION_TYPE":"U","NORAD_CAT_ID":57166,"ELEMENT_SET_NO":999,"REV_AT_EPOCH":14039,"BSTAR":2.3891208e-5,"MEAN_MOTION_DOT":1.2e-7,"MEAN_MOTION_DDOT":0},{"OBJECT_NAME":"CZ-6A DEB","OBJECT_ID":"2022-151HC","EPOCH":"2026-03-09T15:05:45.740832","MEAN_MOTION":14.46809303,"ECCENTRICITY":0.0105682,"INCLINATION":98.615,"RA_OF_ASC_NODE":106.745,"ARG_OF_PERICENTER":299.1748,"MEAN_ANOMALY":59.8902,"EPHEMERIS_TYPE":0,"CLASSIFICATION_TYPE":"U","NORAD_CAT_ID":54476,"ELEMENT_SET_NO":999,"REV_AT_EPOCH":17432,"BSTAR":0.0010177,"MEAN_MOTION_DOT":3.903e-5,"MEAN_MOTION_DDOT":0}]
